{
  "type": "FeatureCollection",
  "features": [
    {
      "type": "Feature",
      "properties": {
        "norad_id": 66926,
        "name": "STARLINK-35942",
        "group": "last-30-days",
        "lat": -53.1393591434869,
        "lon": -107.97119898565155,
        "alt_km": 406.03900903363865,
        "timestamp": "2025-12-26T10:30:48.976408+00:00",
        "meta_object_name": "STARLINK-35942",
        "meta_object_id": "2025-286B",
        "meta_epoch": "2025-12-26T04:00:01.998720",
        "meta_mean_motion": 15.56898808,
        "meta_eccentricity": 0.0001603,
        "meta_inclination": 53.1594,
        "meta_ra_of_asc_node": 343.5975,
        "meta_arg_of_pericenter": 80.684,
        "meta_mean_anomaly": 107.8765,
        "meta_ephemeris_type": 0,
        "meta_classification_type": "U",
        "meta_norad_cat_id": 66926,
        "meta_element_set_no": 999,
        "meta_rev_at_epoch": 414,
        "meta_bstar": -0.031796,
        "meta_mean_motion_dot": -0.0207591,
        "meta_mean_motion_ddot": 0,
        "tle_line1": "1 66926U 25286B   25360.16668980 -.02075910  00000+0 -31796-1 0  9994",
        "tle_line2": "2 66926  53.1594 343.5975 0001603  80.6840 107.8765 15.56898808  4141"
      },
      "geometry": {
        "type": "Point",
        "coordinates": [
          -107.97119898565155,
          -53.1393591434869
        ]
      }
    },
    {
      "type": "Feature",
      "properties": {
        "norad_id": 66927,
        "name": "STARLINK-35943",
        "group": "last-30-days",
        "lat": -53.103635015295005,
        "lon": -104.78354980018071,
        "alt_km": 405.96397015803814,
        "timestamp": "2025-12-26T10:30:48.976418+00:00",
        "meta_object_name": "STARLINK-35943",
        "meta_object_id": "2025-286C",
        "meta_epoch": "2025-12-26T04:00:01.998720",
        "meta_mean_motion": 15.56907686,
        "meta_eccentricity": 0.0001498,
        "meta_inclination": 53.1595,
        "meta_ra_of_asc_node": 343.5931,
        "meta_arg_of_pericenter": 82.6769,
        "meta_mean_anomaly": 107.7984,
        "meta_ephemeris_type": 0,
        "meta_classification_type": "U",
        "meta_norad_cat_id": 66927,
        "meta_element_set_no": 999,
        "meta_rev_at_epoch": 414,
        "meta_bstar": -0.032005,
        "meta_mean_motion_dot": -0.02088614,
        "meta_mean_motion_ddot": 0,
        "tle_line1": "1 66927U 25286C   25360.16668980 -.02088614  00000+0 -32005-1 0  9994",
        "tle_line2": "2 66927  53.1595 343.5931 0001498  82.6769 107.7984 15.56907686  4146"
      },
      "geometry": {
        "type": "Point",
        "coordinates": [
          -104.78354980018071,
          -53.103635015295005
        ]
      }
    },
    {
      "type": "Feature",
      "properties": {
        "norad_id": 66928,
        "name": "STARLINK-35944",
        "group": "last-30-days",
        "lat": -53.09013399189511,
        "lon": -111.14770832754184,
        "alt_km": 405.9669807104319,
        "timestamp": "2025-12-26T10:30:48.976428+00:00",
        "meta_object_name": "STARLINK-35944",
        "meta_object_id": "2025-286D",
        "meta_epoch": "2025-12-26T04:00:01.998720",
        "meta_mean_motion": 15.56910452,
        "meta_eccentricity": 0.0001497,
        "meta_inclination": 53.1594,
        "meta_ra_of_asc_node": 343.6003,
        "meta_arg_of_pericenter": 79.9844,
        "meta_mean_anomaly": 106.6573,
        "meta_ephemeris_type": 0,
        "meta_classification_type": "U",
        "meta_norad_cat_id": 66928,
        "meta_element_set_no": 999,
        "meta_rev_at_epoch": 414,
        "meta_bstar": -0.032078,
        "meta_mean_motion_dot": -0.02093075,
        "meta_mean_motion_ddot": 0,
        "tle_line1": "1 66928U 25286D   25360.16668980 -.02093075  00000+0 -32078-1 0  9992",
        "tle_line2": "2 66928  53.1594 343.6003 0001497  79.9844 106.6573 15.56910452  4146"
      },
      "geometry": {
        "type": "Point",
        "coordinates": [
          -111.14770832754184,
          -53.09013399189511
        ]
      }
    },
    {
      "type": "Feature",
      "properties": {
        "norad_id": 66929,
        "name": "STARLINK-36169",
        "group": "last-30-days",
        "lat": -52.98305070144763,
        "lon": -101.61974795115536,
        "alt_km": 406.0702166273868,
        "timestamp": "2025-12-26T10:30:48.976438+00:00",
        "meta_object_name": "STARLINK-36169",
        "meta_object_id": "2025-286E",
        "meta_epoch": "2025-12-26T04:00:01.998720",
        "meta_mean_motion": 15.56900208,
        "meta_eccentricity": 0.0001661,
        "meta_inclination": 53.1592,
        "meta_ra_of_asc_node": 343.5896,
        "meta_arg_of_pericenter": 86.7419,
        "meta_mean_anomaly": 105.647,
        "meta_ephemeris_type": 0,
        "meta_classification_type": "U",
        "meta_norad_cat_id": 66929,
        "meta_element_set_no": 999,
        "meta_rev_at_epoch": 414,
        "meta_bstar": -0.031754,
        "meta_mean_motion_dot": -0.02073601,
        "meta_mean_motion_ddot": 0,
        "tle_line1": "1 66929U 25286E   25360.16668980 -.02073601  00000+0 -31754-1 0  9996",
        "tle_line2": "2 66929  53.1592 343.5896 0001661  86.7419 105.6470 15.56900208  4144"
      },
      "geometry": {
        "type": "Point",
        "coordinates": [
          -101.61974795115536,
          -52.98305070144763
        ]
      }
    },
    {
      "type": "Feature",
      "properties": {
        "norad_id": 66930,
        "name": "STARLINK-36206",
        "group": "last-30-days",
        "lat": -52.778607178617634,
        "lon": -98.47226120772729,
        "alt_km": 405.92949879783737,
        "timestamp": "2025-12-26T10:30:48.976454+00:00",
        "meta_object_name": "STARLINK-36206",
        "meta_object_id": "2025-286F",
        "meta_epoch": "2025-12-26T04:00:01.998720",
        "meta_mean_motion": 15.56894514,
        "meta_eccentricity": 0.000148,
        "meta_inclination": 53.1593,
        "meta_ra_of_asc_node": 343.585,
        "meta_arg_of_pericenter": 83.6783,
        "meta_mean_anomaly": 110.6314,
        "meta_ephemeris_type": 0,
        "meta_classification_type": "U",
        "meta_norad_cat_id": 66930,
        "meta_element_set_no": 999,
        "meta_rev_at_epoch": 414,
        "meta_bstar": -0.031621,
        "meta_mean_motion_dot": -0.02065338,
        "meta_mean_motion_ddot": 0,
        "tle_line1": "1 66930U 25286F   25360.16668980 -.02065338  00000+0 -31621-1 0  9999",
        "tle_line2": "2 66930  53.1593 343.5850 0001480  83.6783 110.6314 15.56894514  4141"
      },
      "geometry": {
        "type": "Point",
        "coordinates": [
          -98.47226120772729,
          -52.778607178617634
        ]
      }
    },
    {
      "type": "Feature",
      "properties": {
        "norad_id": 66931,
        "name": "STARLINK-36130",
        "group": "last-30-days",
        "lat": -52.49104982380254,
        "lon": -95.35953879471923,
        "alt_km": 406.05421280262635,
        "timestamp": "2025-12-26T10:30:48.976464+00:00",
        "meta_object_name": "STARLINK-36130",
        "meta_object_id": "2025-286G",
        "meta_epoch": "2025-12-26T04:00:01.998720",
        "meta_mean_motion": 15.56898231,
        "meta_eccentricity": 0.0001668,
        "meta_inclination": 53.1589,
        "meta_ra_of_asc_node": 343.5814,
        "meta_arg_of_pericenter": 86.3137,
        "meta_mean_anomaly": 109.9115,
        "meta_ephemeris_type": 0,
        "meta_classification_type": "U",
        "meta_norad_cat_id": 66931,
        "meta_element_set_no": 999,
        "meta_rev_at_epoch": 414,
        "meta_bstar": -0.031745,
        "meta_mean_motion_dot": -0.02072963,
        "meta_mean_motion_ddot": 0,
        "tle_line1": "1 66931U 25286G   25360.16668980 -.02072963  00000+0 -31745-1 0  9999",
        "tle_line2": "2 66931  53.1589 343.5814 0001668  86.3137 109.9115 15.56898231  4148"
      },
      "geometry": {
        "type": "Point",
        "coordinates": [
          -95.35953879471923,
          -52.49104982380254
        ]
      }
    },
    {
      "type": "Feature",
      "properties": {
        "norad_id": 66932,
        "name": "STARLINK-36177",
        "group": "last-30-days",
        "lat": -52.12319691484062,
        "lon": -92.29380968297407,
        "alt_km": 405.9213477446783,
        "timestamp": "2025-12-26T10:30:48.976475+00:00",
        "meta_object_name": "STARLINK-36177",
        "meta_object_id": "2025-286H",
        "meta_epoch": "2025-12-26T04:00:01.998720",
        "meta_mean_motion": 15.56893889,
        "meta_eccentricity": 0.0001501,
        "meta_inclination": 53.159,
        "meta_ra_of_asc_node": 343.5762,
        "meta_arg_of_pericenter": 85.4321,
        "meta_mean_anomaly": 112.7125,
        "meta_ephemeris_type": 0,
        "meta_classification_type": "U",
        "meta_norad_cat_id": 66932,
        "meta_element_set_no": 999,
        "meta_rev_at_epoch": 414,
        "meta_bstar": -0.031636,
        "meta_mean_motion_dot": -0.02066185,
        "meta_mean_motion_ddot": 0,
        "tle_line1": "1 66932U 25286H   25360.16668980 -.02066185  00000+0 -31636-1 0  9998",
        "tle_line2": "2 66932  53.1590 343.5762 0001501  85.4321 112.7125 15.56893889  4141"
      },
      "geometry": {
        "type": "Point",
        "coordinates": [
          -92.29380968297407,
          -52.12319691484062
        ]
      }
    }
  ]
}